     2              NAVIGATION DATA                         RINEX VERSION / TYPE
CCRINEXN V1.6.0 UX  CDDIS               14-SEP-19 22:42     PGM / RUN BY / DATE 
IGS BROADCAST EPHEMERIS FILE                                COMMENT             
    0.7451D-08  0.1490D-07 -0.5960D-07 -0.1192D-06          ION ALPHA           
    0.7987D+05  0.1638D+05 -0.1311D+06 -0.1311D+06          ION BETA            
    0.186264514923D-08-0.444089209850D-14   147456     2071 DELTA-UTC: A0,A1,T,W
    18                                                      LEAP SECONDS        
                                                            END OF HEADER       
10 19  9 15  2  0  0.0-0.540893524885D-04-0.153477230924D-10 0.000000000000D+00
    0.520000000000D+02-0.865312500000D+02 0.462483550011D-08-0.247617054359D-01
   -0.444427132606D-05 0.483010429889D-02 0.615231692791D-05 0.515366454315D+04
    0.720000000000D+04 0.800937414169D-07 0.234072559003D+01 0.745058059692D-07
    0.963767771036D+00 0.263031250000D+03-0.273437962077D+01-0.831748931396D-08
   -0.351443210449D-09 0.100000000000D+01 0.207100000000D+04 0.000000000000D+00
    0.200000000000D+01 0.000000000000D+00 0.186264514923D-08 0.520000000000D+02
    0.180000000000D+02 0.400000000000D+01 0.000000000000D+00 0.000000000000D+00
11 19  9 15  2  0  0.0-0.506816897541D-03 0.109139364213D-10 0.000000000000D+00
    0.560000000000D+02 0.808750000000D+02 0.568809407481D-08 0.120592867200D+01
    0.393949449062D-05 0.167066295398D-01 0.715628266334D-05 0.515372620392D+04
    0.720000000000D+04 0.132247805595D-06 0.843438095234D+00-0.420957803726D-06
    0.910490532854D+00 0.212781250000D+03 0.194366987831D+01-0.878679457669D-08
    0.398230873629D-09 0.100000000000D+01 0.207100000000D+04 0.000000000000D+00
    0.200000000000D+01 0.000000000000D+00-0.121071934700D-07 0.560000000000D+02
    0.240000000000D+02 0.400000000000D+01 0.000000000000D+00 0.000000000000D+00
12 19  9 15  2  0  0.0 0.203922856599D-03-0.375166564481D-11 0.000000000000D+00
    0.690000000000D+02-0.629062500000D+02 0.425624871842D-08 0.655731954234D+00
   -0.329129397869D-05 0.747833424248D-02 0.788271427155D-05 0.515357972145D+04
    0.720000000000D+04-0.614672899246D-07-0.729917858363D+00 0.782310962677D-07
    0.981467613951D+00 0.238968750000D+03 0.110454236922D+01-0.805319259065D-08
   -0.653955811313D-09 0.100000000000D+01 0.207100000000D+04 0.000000000000D+00
    0.200000000000D+01 0.000000000000D+00-0.125728547573D-07 0.690000000000D+02
    0.180000000000D+02 0.400000000000D+01 0.000000000000D+00 0.000000000000D+00
13 19  9 15  2  0  0.0-0.442974269390D-04 0.204636307899D-11 0.000000000000D+00
    0.450000000000D+02 0.293750000000D+02 0.414838708269D-08-0.302648844510D+01
    0.132806599140D-05 0.375688879285D-02 0.122431665659D-04 0.515367607117D+04
    0.720000000000D+04 0.223517417908D-07-0.276900099614D+01-0.316649675369D-07
    0.968317915859D+00 0.147250000000D+03 0.120981695172D+01-0.772032158238D-08
    0.358586365133D-09 0.100000000000D+01 0.207100000000D+04 0.000000000000D+00
    0.200000000000D+01 0.000000000000D+00-0.111758708954D-07 0.450000000000D+02
    0.180000000000D+02 0.400000000000D+01 0.000000000000D+00 0.000000000000D+00
14 19  9 15  2  0  0.0-0.612898729742D-04 0.204636307899D-11 0.000000000000D+00
    0.540000000000D+02 0.160625000000D+02 0.424767693279D-08-0.240158513701D+01
    0.825151801109D-06 0.107758517843D-01 0.123493373394D-04 0.515375458908D+04
    0.720000000000D+04 0.173225998878D-06-0.281415741515D+01 0.242143869400D-07
    0.960920162959D+00 0.137312500000D+03-0.193095915220D+01-0.769246327912D-08
    0.391087718945D-09 0.100000000000D+01 0.207100000000D+04 0.000000000000D+00
    0.200000000000D+01 0.000000000000D+00-0.977888703346D-08 0.540000000000D+02
    0.180000000000D+02 0.400000000000D+01 0.000000000000D+00 0.000000000000D+00
15 19  9 15  2  0  0.0-0.286907423288D-03 0.272848410532D-11 0.000000000000D+00
    0.105000000000D+03-0.234375000000D+01 0.491841915761D-08-0.303253785859D+01
   -0.346451997757D-06 0.116886525648D-01 0.131055712700D-04 0.515357778740D+04
    0.720000000000D+04 0.000000000000D+00-0.299068467642D+01-0.191852450371D-06
    0.928568099754D+00 0.109875000000D+03 0.807371621583D+00-0.799033282943D-08
    0.179293182566D-09 0.100000000000D+01 0.207100000000D+04 0.000000000000D+00
    0.200000000000D+01 0.000000000000D+00-0.107102096081D-07 0.105000000000D+03
    0.180000000000D+02 0.400000000000D+01 0.000000000000D+00 0.000000000000D+00
16 19  9 15  2  0  0.0-0.742003321648D-04-0.352429196937D-11 0.000000000000D+00
    0.710000000000D+02-0.662812500000D+02 0.415624455284D-08-0.118005092099D+01
   -0.344030559063D-05 0.107852801448D-01 0.766292214394D-05 0.515363315201D+04
    0.720000000000D+04 0.277534127235D-06-0.711017910601D+00-0.558793544769D-07
    0.981799947977D+00 0.242437500000D+03 0.580144839373D+00-0.788318550918D-08
   -0.582881422208D-09 0.100000000000D+01 0.207100000000D+04 0.000000000000D+00
    0.200000000000D+01 0.000000000000D+00-0.107102096081D-07 0.710000000000D+02
    0.402600000000D+04 0.400000000000D+01 0.000000000000D+00 0.000000000000D+00
17 19  9 15  2  0  0.0 0.125718303025D-03 0.716227077646D-11 0.000000000000D+00
    0.550000000000D+02 0.517187500000D+02 0.363550856086D-08-0.222394131668D+01
    0.263005495071D-05 0.130885172402D-01 0.117681920528D-04 0.515357099724D+04
    0.720000000000D+04 0.240281224251D-06 0.303083909324D+00-0.242143869400D-07
    0.984516813603D+00 0.166500000000D+03-0.170385516733D+01-0.732209048948D-08
    0.817891240845D-10 0.100000000000D+01 0.207100000000D+04 0.000000000000D+00
    0.200000000000D+01 0.000000000000D+00-0.111758708954D-07 0.550000000000D+02
    0.300000000000D+02 0.000000000000D+00 0.000000000000D+00 0.000000000000D+00
18 19  9 15  2  0  0.0 0.857710838318D-04 0.295585778076D-11 0.000000000000D+00
    0.100000000000D+03 0.635625000000D+02 0.481627204563D-08 0.169207543058D+01
    0.298023223877D-05 0.157063066727D-01 0.440515577793D-05 0.515367101669D+04
    0.720000000000D+04-0.931322574616D-08 0.124401666583D+01-0.389292836189D-06
    0.955197572681D+00 0.289750000000D+03 0.143283186404D+01-0.838142054838D-08
    0.375372778640D-09 0.100000000000D+01 0.207100000000D+04 0.000000000000D+00
    0.200000000000D+01 0.000000000000D+00-0.558793544769D-08 0.100000000000D+03
    0.211200000000D+04 0.400000000000D+01 0.000000000000D+00 0.000000000000D+00
19 19  9 15  2  0  0.0-0.267138704658D-03 0.511590769747D-11 0.000000000000D+00
    0.103000000000D+03 0.488750000000D+02 0.375087052453D-08 0.550417640338D+00
    0.260584056377D-05 0.941723131109D-02 0.118017196655D-04 0.515364864540D+04
    0.720000000000D+04-0.143423676491D-06 0.349093639666D+00-0.150874257088D-06
    0.982433979599D+00 0.171156250000D+03 0.150066757872D+01-0.770960685036D-08
    0.253581991279D-10 0.100000000000D+01 0.207100000000D+04 0.000000000000D+00
    0.280000000000D+01 0.000000000000D+00-0.153668224812D-07 0.103000000000D+03
    0.180000000000D+02 0.400000000000D+01 0.000000000000D+00 0.000000000000D+00
20 19  9 15  2  0  0.0 0.526869203895D-03 0.113686837722D-12 0.000000000000D+00
    0.610000000000D+02-0.834062500000D+02 0.540165357198D-08 0.157831911530D+01
   -0.433064997196D-05 0.484182755463D-02 0.449642539024D-05 0.515362212563D+04
    0.720000000000D+04 0.894069671631D-07 0.221847963052D+01 0.912696123123D-07
    0.931591625193D+00 0.276812500000D+03 0.243016776649D+01-0.863535969739D-08
   -0.350371737246D-09 0.100000000000D+01 0.207100000000D+04 0.000000000000D+00
    0.200000000000D+01 0.000000000000D+00-0.884756445885D-08 0.610000000000D+02
    0.180000000000D+02 0.400000000000D+01 0.000000000000D+00 0.000000000000D+00
21 19  9 15  2  0  0.0-0.118715222925D-03 0.648014975013D-11 0.000000000000D+00
    0.100000000000D+03 0.613750000000D+02 0.508556897722D-08 0.117427828575D+00
    0.327080488205D-05 0.244937731186D-01 0.479817390442D-05 0.515365391731D+04
    0.720000000000D+04-0.396743416786D-06 0.123427086212D+01-0.249594449997D-06
    0.949552844756D+00 0.286468750000D+03-0.141257030528D+01-0.893001482810D-08
    0.322156276245D-09 0.100000000000D+01 0.207100000000D+04 0.000000000000D+00
    0.280000000000D+01 0.000000000000D+00-0.102445483208D-07 0.100000000000D+03
    0.180000000000D+02 0.400000000000D+01 0.000000000000D+00 0.000000000000D+00
22 19  9 15  2  0  0.0-0.754904933274D-03-0.375166564481D-11 0.000000000000D+00
    0.100000000000D+03-0.820312500000D+02 0.537165232231D-08-0.304026411559D+01
   -0.440701842308D-05 0.692562141921D-02 0.463798642158D-05 0.515370716476D+04
    0.720000000000D+04 0.102445483208D-06 0.226680351440D+01 0.465661287308D-07
    0.928347867678D+00 0.268812500000D+03-0.128835244923D+01-0.852499795753D-08
   -0.290726395636D-09 0.100000000000D+01 0.207100000000D+04 0.000000000000D+00
    0.200000000000D+01 0.000000000000D+00-0.181607902050D-07 0.100000000000D+03
    0.290000000000D+02 0.400000000000D+01 0.000000000000D+00 0.000000000000D+00
23 19  9 15  2  0  0.0-0.166831072420D-03 0.204636307899D-11 0.000000000000D+00
    0.550000000000D+02-0.162500000000D+01 0.464483633322D-08 0.276276161835D+01
   -0.106170773506D-06 0.132399663562D-01 0.121556222439D-04 0.515376797485D+04
    0.720000000000D+04 0.335276126862D-07-0.291403683331D+01-0.188127160072D-06
    0.943842389384D+00 0.137750000000D+03-0.222959993062D+01-0.778103839720D-08
    0.225723688012D-09 0.100000000000D+01 0.207100000000D+04 0.000000000000D+00
    0.200000000000D+01 0.000000000000D+00-0.200234353542D-07 0.550000000000D+02
    0.309100000000D+04 0.400000000000D+01 0.000000000000D+00 0.000000000000D+00
